ONEWEB-0205             
1 48226U 21031S   25014.54729196 -.00000098  00000+0 -29990-3 0  9994
2 48226  87.8986  32.8212 0001992  91.7499 268.3859 13.14501750180139
ONEWEB-0206             
1 48227U 21031T   25015.05313455  .00001607  00000+0  42981-2 0  9998
2 48227  87.8989  32.7051 0001888  88.8580 271.2766 13.14510634180169
ONEWEB-0182             
1 48228U 21031U   25014.97227717  .00000088  00000+0  20407-3 0  9996
2 48228  87.8987  32.7570 0001751  87.2849 272.8481 13.14500934180358
ONEWEB-0186             
1 48229U 21031V   25014.60279638 -.00000147  00000+0 -43080-3 0  9996
2 48229  87.8986  32.7929 0001919  92.6730 267.4619 13.14501617180252
ONEWEB-0181             
1 48230U 21031W   25015.11342249  .00000183  00000+0  46003-3 0  9990
2 48230  87.8988  32.7624 0001875  96.3057 263.8286 13.14502562180184
ONEWEB-0188             
1 48231U 21031X   25014.54253416 -.00000172  00000+0 -49739-3 0  9993
2 48231  87.8986  32.8690 0001874  91.5976 268.5368 13.14501900180002
ONEWEB-0220             
1 48232U 21031Y   25014.58218305  .00000159  00000+0  39491-3 0  9993
2 48232  87.8981  32.8135 0002135  90.1297 270.0077 13.14501823180272
ONEWEB-0165             
1 48233U 21031Z   25014.53460465 -.00000204  00000+0 -58578-3 0  9995
2 48233  87.8987  32.8531 0001983  94.7790 265.3566 13.14501893180229
